{
    "links": {
        "self": "http://www.neowsapp.com/rest/v1/neo/3825421?api_key=iIulBulltgU6a56xZRHN4H3l9WmuAYTsLGpBGhQ2"
    },
    "id": "3825421",
    "neo_reference_id": "3825421",
    "name": "(2018 MU4)",
    "designation": "2018 MU4",
    "nasa_jpl_url": "http://ssd.jpl.nasa.gov/sbdb.cgi?sstr=3825421",
    "absolute_magnitude_h": 22.5,
    "estimated_diameter": {
        "kilometers": {
            "estimated_diameter_min": 0.0840533402,
            "estimated_diameter_max": 0.1879489824
        },
        "meters": {
            "estimated_diameter_min": 84.0533402073,
            "estimated_diameter_max": 187.9489824394
        },
        "miles": {
            "estimated_diameter_min": 0.0522283081,
            "estimated_diameter_max": 0.1167860472
        },
        "feet": {
            "estimated_diameter_min": 275.7655606856,
            "estimated_diameter_max": 616.6305395464
        }
    },
    "is_potentially_hazardous_asteroid": false,
    "close_approach_data": [
        {
            "close_approach_date": "2018-05-23",
            "close_approach_date_full": "2018-May-23 18:27",
            "epoch_date_close_approach": 1527100020000,
            "relative_velocity": {
                "kilometers_per_second": "19.8888616425",
                "kilometers_per_hour": "71599.9019129518",
                "miles_per_hour": "44489.3946080783"
            },
            "miss_distance": {
                "astronomical": "0.1088829995",
                "lunar": "42.3554868055",
                "kilometers": "16288664.804411065",
                "miles": "10121306.978220097"
            },
            "orbiting_body": "Earth"
        }
    ],
    "orbital_data": {
        "orbit_id": "3",
        "orbit_determination_date": "2018-11-26 06:29:10",
        "first_observation_date": "2018-06-16",
        "last_observation_date": "2018-06-19",
        "data_arc_in_days": 3,
        "observations_used": 23,
        "orbit_uncertainty": "9",
        "minimum_orbit_intersection": ".0482766",
        "jupiter_tisserand_invariant": "4.093",
        "epoch_osculation": "2458286.5",
        "eccentricity": ".5925580027477735",
        "semi_major_axis": "1.627112629155194",
        "inclination": "6.428354211892995",
        "ascending_node_longitude": "211.8262591215054",
        "orbital_period": "758.0971270442896",
        "perihelion_distance": ".6629540193773137",
        "perihelion_argument": "300.0419141043831",
        "aphelion_distance": "2.591271238933075",
        "perihelion_time": "2458212.039781659881",
        "mean_anomaly": "35.35916130820108",
        "mean_motion": ".4748731886158013",
        "equinox": "J2000",
        "orbit_class": {
            "orbit_class_type": "APO",
            "orbit_class_description": "Near-Earth asteroid orbits which cross the Earth’s orbit similar to that of 1862 Apollo",
            "orbit_class_range": "a (semi-major axis) > 1.0 AU; q (perihelion) < 1.017 AU"
        }
    },
    "is_sentry_object": false
}